[{"sector":"government","school_name":"O'Connor Cooperative School","suburb":"O'Connor","postcode":"2602","phone":"","public_email":"info_coop@ed.act.edu.au","contact_form_url":"http://www.coop.act.edu.au/sitesearch","website_url":"http://www.coop.act.edu.au/","lat":-35.261153,"lon":149.120241},{"sector":"government","school_name":"Erindale College","suburb":"Wanniassa","postcode":"2903","phone":"","public_email":"info@erindalec.act.edu.au","contact_form_url":"http://www.erindalec.act.edu.au/sitesearch","website_url":"http://www.erindalec.act.edu.au/","lat":-35.403049,"lon":149.096551},{"sector":"government","school_name":"Hawker College","suburb":"Hawker","postcode":"2614","phone":"","public_email":"info@hawkerc.act.edu.au","contact_form_url":"http://www.hawkerc.act.edu.au/sitesearch","website_url":"http://www.hawkerc.act.edu.au/","lat":-35.245578,"lon":149.032519},{"sector":"government","school_name":"Narrabundah College","suburb":"Narrabundah","postcode":"2604","phone":"","public_email":"info@narrabundahc.act.edu.au","contact_form_url":"http://www.narrabundahc.act.edu.au/sitesearch","website_url":"http://www.narrabundahc.act.edu.au/","lat":-35.335969,"lon":149.147097},{"sector":"government","school_name":"Southern Cross Early Childhood School","suburb":"Scullin","postcode":"2614","phone":"","public_email":"info@scecs.act.edu.au","contact_form_url":"http://www.scecs.act.edu.au/sitesearch","website_url":"http://www.scecs.act.edu.au/","lat":-35.2328,"lon":149.0384},{"sector":"government","school_name":"Lyons Early Childhood School","suburb":"Lyons","postcode":"2606","phone":"","public_email":"info@lecs.act.edu.au","contact_form_url":"http://www.lecs.act.edu.au/sitesearch","website_url":"http://www.lecs.act.edu.au/","lat":-35.341633,"lon":149.076243},{"sector":"government","school_name":"Narrabundah Early Childhood School","suburb":"Narrabundah","postcode":"2604","phone":"","public_email":"info@necs.act.edu.au","contact_form_url":"http://www.necs.act.edu.au/sitesearch","website_url":"http://www.necs.act.edu.au/","lat":-35.329016,"lon":149.150698},{"sector":"government","school_name":"Caroline Chisholm School","suburb":"Chisholm","postcode":"2905","phone":"","public_email":"info@chisholm.act.edu.au","contact_form_url":"http://www.chisholm.act.edu.au/sitesearch","website_url":"http://www.chisholm.act.edu.au/","lat":-35.4182,"lon":149.122},{"sector":"government","school_name":"Isabella Plains Early Childhood School","suburb":"Isabella Plains","postcode":"2905","phone":"","public_email":"info@ipecs.act.edu.au","contact_form_url":"http://www.ipecs.act.edu.au/sitesearch","website_url":"http://www.ipecs.act.edu.au/","lat":-35.428716,"lon":149.089497},{"sector":"government","school_name":"The Canberra College","suburb":"Phillip","postcode":"2606","phone":"","public_email":"canberrac.absences@ed.act.edu.au","contact_form_url":"http://www.canberrac.act.edu.au/sitesearch","website_url":"http://www.canberrac.act.edu.au/","lat":-35.3404,"lon":149.0883},{"sector":"independent","school_name":"Daramalan College","suburb":"Dickson","postcode":"2602","phone":"","public_email":"info@daramalan.act.edu.au","contact_form_url":"http://www.daramalan.act.edu.au/","website_url":"http://www.daramalan.act.edu.au/","lat":-35.2535,"lon":149.1387},{"sector":"independent","school_name":"Marist College Canberra","suburb":"Pearce","postcode":"2607","phone":"","public_email":"enquiries@mcc.act.edu.au","contact_form_url":"https://www.maristc.act.edu.au/contact","website_url":"http://www.maristc.act.edu.au","lat":-35.3603,"lon":149.088},{"sector":"independent","school_name":"St Edmund's College Canberra","suburb":"Griffith","postcode":"2603","phone":"","public_email":"reception@sec.act.edu.au","contact_form_url":"https://sec.act.edu.au/contacts/","website_url":"https://sec.act.edu.au/","lat":-35.323315,"lon":149.144412},{"sector":"catholic","school_name":"Mother Teresa School","suburb":"Harrison","postcode":"2914","phone":"","public_email":"office.mts@cg.catholic.edu.au","contact_form_url":"http://www.motherteresa.act.edu.au/site-search","website_url":"http://www.motherteresa.act.edu.au/","lat":-35.19495163,"lon":149.15320486},{"sector":"government","school_name":"Amaroo School","suburb":"Amaroo","postcode":"2914","phone":"","public_email":"info@amaroos.act.edu.au","contact_form_url":"http://www.amaroos.act.edu.au/sitesearch","website_url":"http://www.amaroos.act.edu.au/","lat":-35.164592,"lon":149.12774},{"sector":"government","school_name":"Aranda Primary School","suburb":"Aranda","postcode":"2614","phone":"","public_email":"info@arandaps.act.edu.au","contact_form_url":"http://www.arandaps.act.edu.au/sitesearch","website_url":"http://www.arandaps.act.edu.au/","lat":-35.255999,"lon":149.079914},{"sector":"government","school_name":"Belconnen High School","suburb":"Hawker","postcode":"2614","phone":"","public_email":"absences_blch@ed.act.edu.au","contact_form_url":"http://www.blch.act.edu.au/sitesearch","website_url":"http://www.blch.act.edu.au/","lat":-35.246957,"lon":149.039298},{"sector":"government","school_name":"Canberra High School","suburb":"Macquarie","postcode":"2614","phone":"","public_email":"info@canberrahs.act.edu.au","contact_form_url":"http://www.canberrahs.act.edu.au/sitesearch","website_url":"http://www.canberrahs.act.edu.au/","lat":-35.2513,"lon":149.0745},{"sector":"government","school_name":"Charnwood-Dunlop School","suburb":"Charnwood","postcode":"2615","phone":"","public_email":"info@charnwoodps.act.edu.au","contact_form_url":"http://www.charnwoodps.act.edu.au/sitesearch","website_url":"http://www.charnwoodps.act.edu.au/","lat":-35.1987,"lon":149.0362},{"sector":"government","school_name":"Evatt Primary School","suburb":"Evatt","postcode":"2617","phone":"","public_email":"info@evattps.act.edu.au","contact_form_url":"","website_url":"http://www.evattps.act.edu.au/","lat":-35.2071,"lon":149.0759},{"sector":"government","school_name":"Florey Primary School","suburb":"Florey","postcode":"2615","phone":"","public_email":"admin@floreyps.act.edu.au","contact_form_url":"https://www.floreyps.act.edu.au/sitesearch","website_url":"http://www.floreyps.act.edu.au/","lat":-35.2265,"lon":149.0521},{"sector":"government","school_name":"Fraser Primary School","suburb":"Fraser","postcode":"2615","phone":"","public_email":"info@fraserps.act.edu.au","contact_form_url":"http://www.fraserps.act.edu.au/sitesearch","website_url":"http://www.fraserps.act.edu.au/","lat":-35.1918,"lon":149.0434},{"sector":"government","school_name":"Giralang Primary School","suburb":"Giralang","postcode":"2617","phone":"","public_email":"info@giralangps.act.edu.au","contact_form_url":"http://www.giralangps.act.edu.au/sitesearch","website_url":"http://www.giralangps.act.edu.au/","lat":-35.2137,"lon":149.0944},{"sector":"government","school_name":"Gold Creek School","suburb":"Nicholls","postcode":"2913","phone":"","public_email":"info@goldcreek.act.edu.au","contact_form_url":"http://www.goldcreek.act.edu.au/sitesearch","website_url":"http://www.goldcreek.act.edu.au/","lat":-35.181275,"lon":149.100262},{"sector":"government","school_name":"Harrison School","suburb":"Harrison","postcode":"2914","phone":"","public_email":"info.harrison@ed.act.edu.au","contact_form_url":"http://www.harrison.act.edu.au/sitesearch","website_url":"http://www.harrison.act.edu.au/","lat":-35.197531,"lon":149.151642},{"sector":"government","school_name":"Hawker Primary School","suburb":"Hawker","postcode":"2614","phone":"","public_email":"info@hawkerps.act.edu.au","contact_form_url":"http://www.hawkerps.act.edu.au/sitesearch","website_url":"http://www.hawkerps.act.edu.au/","lat":-35.25007119,"lon":149.03454992},{"sector":"government","school_name":"Jervis Bay School","suburb":"Jervis Bay","postcode":"2540","phone":"","public_email":"info@jbs.act.edu.au","contact_form_url":"http://www.jbs.act.edu.au/sitesearch","website_url":"http://www.jbs.act.edu.au","lat":-35.1315414,"lon":150.7055651},{"sector":"government","school_name":"University of Canberra High School Kaleen","suburb":"Kaleen","postcode":"2617","phone":"","public_email":"uchskaleen.information@ed.act.edu.au","contact_form_url":"http://www.kaleenhs.act.edu.au/sitesearch","website_url":"http://www.kaleenhs.act.edu.au/","lat":-35.225083,"lon":149.1012},{"sector":"government","school_name":"Kaleen Primary School","suburb":"Kaleen","postcode":"2617","phone":"","public_email":"admin@kaleenps.act.edu.au","contact_form_url":"http://www.kaleenps.act.edu.au/sitesearch","website_url":"http://www.kaleenps.act.edu.au/","lat":-35.224835,"lon":149.11404},{"sector":"government","school_name":"University of Canberra Senior Secondary College Lake Ginninderra","suburb":"Belconnen","postcode":"2616","phone":"","public_email":"lgnc.info@ed.act.edu.au","contact_form_url":"https://www.lakeonline.act.edu.au/sitesearch","website_url":"http://www.lakeonline.act.edu.au/","lat":-35.239149,"lon":149.074161},{"sector":"government","school_name":"Latham Primary School","suburb":"Latham","postcode":"2615","phone":"","public_email":"info@lathamps.act.edu.au","contact_form_url":"http://www.lathamps.act.edu.au/sitesearch","website_url":"http://www.lathamps.act.edu.au/","lat":-35.220157,"lon":149.034298},{"sector":"government","school_name":"Macgregor Primary School","suburb":"Macgregor","postcode":"2615","phone":"","public_email":"macgregorps.info@ed.act.edu.au","contact_form_url":"http://www.macgregorps.act.edu.au/sitesearch","website_url":"http://www.macgregorps.act.edu.au/","lat":-35.213112,"lon":149.012349},{"sector":"government","school_name":"Macquarie Primary School","suburb":"Macquarie","postcode":"2614","phone":"","public_email":"admin@macquarieps.act.edu.au","contact_form_url":"http://www.macquarieps.act.edu.au/sitesearch","website_url":"http://www.macquarieps.act.edu.au/","lat":-35.250069,"lon":149.059393},{"sector":"government","school_name":"Maribyrnong Primary School","suburb":"Kaleen","postcode":"2617","phone":"","public_email":"maribyrnongps@ed.act.edu.au","contact_form_url":"","website_url":"http://www.maribyrnongps.act.edu.au/","lat":-35.235115,"lon":149.102261},{"sector":"government","school_name":"Melba Copland Secondary School","suburb":"Melba","postcode":"2615","phone":"","public_email":"","contact_form_url":"","website_url":"","lat":-35.20998,"lon":149.03572666666665},{"sector":"government","school_name":"Miles Franklin Primary School","suburb":"Evatt","postcode":"2617","phone":"","public_email":"info@mfps.act.edu.au","contact_form_url":"http://www.mfps.act.edu.au/sitesearch","website_url":"http://www.mfps.act.edu.au/","lat":-35.213295,"lon":149.066961},{"sector":"government","school_name":"Mount Rogers Primary School","suburb":"Melba","postcode":"2615","phone":"","public_email":"info@mtrogers.act.edu.au","contact_form_url":"http://www.mtrogers.act.edu.au/sitesearch","website_url":"http://www.mtrogers.act.edu.au/","lat":-35.208737,"lon":149.055621},{"sector":"government","school_name":"Ngunnawal Primary School","suburb":"Ngunnawal","postcode":"2913","phone":"","public_email":"info@ngunnawalps.act.edu.au","contact_form_url":"http://www.ngunnawalps.act.edu.au/sitesearch","website_url":"http://www.ngunnawalps.act.edu.au/","lat":-35.169196,"lon":149.111784},{"sector":"government","school_name":"Palmerston District Primary School","suburb":"Palmerston","postcode":"2913","phone":"","public_email":"info@palmdps.act.edu.au","contact_form_url":"http://www.palmdps.act.edu.au/sitesearch","website_url":"http://www.palmdps.act.edu.au/","lat":-35.1975,"lon":149.120303},{"sector":"government","school_name":"Weetangera Primary School","suburb":"Weetangera","postcode":"2614","phone":"","public_email":"info@weetangeraps.act.edu.au","contact_form_url":"http://www.weetangeraps.act.edu.au/sitesearch","website_url":"http://www.weetangeraps.act.edu.au/","lat":-35.2518,"lon":149.0471},{"sector":"government","school_name":"Cranleigh School","suburb":"Holt","postcode":"2615","phone":"","public_email":"info@cranleighps.act.edu.au","contact_form_url":"http://www.cranleighps.act.edu.au/sitesearch","website_url":"http://www.cranleighps.act.edu.au/","lat":-35.2249,"lon":149.0291},{"sector":"government","school_name":"Kingsford Smith School","suburb":"Holt","postcode":"2615","phone":"","public_email":"info@kss.act.edu.au","contact_form_url":"http://www.kss.act.edu.au/sitesearch","website_url":"http://www.kss.act.edu.au/","lat":-35.2277,"lon":149.0195},{"sector":"government","school_name":"Ainslie School","suburb":"Braddon","postcode":"2612","phone":"","public_email":"info@ainslies.act.edu.au","contact_form_url":"http://www.ainslies.act.edu.au/sitesearch","website_url":"http://www.ainslies.act.edu.au","lat":-35.273729,"lon":149.139632},{"sector":"government","school_name":"Alfred Deakin High School","suburb":"Deakin","postcode":"2600","phone":"","public_email":"info@adhs.act.edu.au","contact_form_url":"http://www.adhs.act.edu.au/sitesearch","website_url":"http://www.adhs.act.edu.au/","lat":-35.32433444,"lon":149.09509971},{"sector":"government","school_name":"Campbell High School","suburb":"Campbell","postcode":"2612","phone":"","public_email":"info@campbellhs.act.edu.au","contact_form_url":"http://www.campbellhs.act.edu.au/sitesearch","website_url":"http://www.campbellhs.act.edu.au/","lat":-35.278101,"lon":149.147123},{"sector":"government","school_name":"Campbell Primary School","suburb":"Campbell","postcode":"2612","phone":"","public_email":"campbellps@ed.act.edu.au","contact_form_url":"http://www.campbellps.act.edu.au/sitesearch","website_url":"http://www.campbellps.act.edu.au/","lat":-35.2903,"lon":149.1561},{"sector":"government","school_name":"Curtin Primary School","suburb":"Curtin","postcode":"2605","phone":"","public_email":"curtinps@ed.act.edu.au","contact_form_url":"http://www.curtinps.act.edu.au/sitesearch","website_url":"http://www.curtinps.act.edu.au/","lat":-35.3317,"lon":149.0799},{"sector":"government","school_name":"Dickson College","suburb":"Dickson","postcode":"2602","phone":"","public_email":"info@dicksonc.act.edu.au","contact_form_url":"http://www.dicksonc.act.edu.au/sitesearch","website_url":"http://www.dicksonc.act.edu.au/","lat":-35.2485,"lon":149.1541},{"sector":"government","school_name":"Farrer Primary School","suburb":"Farrer","postcode":"2607","phone":"","public_email":"info_farrerps@ed.act.edu.au","contact_form_url":"http://www.farrerps.act.edu.au/sitesearch","website_url":"http://www.farrerps.act.edu.au","lat":-35.3787,"lon":149.1071},{"sector":"government","school_name":"Forrest Primary School","suburb":"Forrest","postcode":"2603","phone":"","public_email":"forrestps@ed.act.edu.au","contact_form_url":"http://www.forrestps.act.edu.au/sitesearch","website_url":"http://www.forrestps.act.edu.au/","lat":-35.3151,"lon":149.1262},{"sector":"government","school_name":"Garran Primary School","suburb":"Garran","postcode":"2605","phone":"","public_email":"info@garranps.act.edu.au","contact_form_url":"http://www.garranps.act.edu.au/sitesearch","website_url":"http://www.garranps.act.edu.au/","lat":-35.3447,"lon":149.1033},{"sector":"government","school_name":"Hughes Primary School","suburb":"Hughes","postcode":"2605","phone":"","public_email":"info_hughesps@ed.act.edu.au","contact_form_url":"","website_url":"http://www.hughesps.act.edu.au/","lat":-35.332248,"lon":149.093456},{"sector":"government","school_name":"Lyneham High School","suburb":"Lyneham","postcode":"2602","phone":"","public_email":"lynehamhs@ed.act.edu.au","contact_form_url":"http://www.lynehamhs.act.edu.au/sitesearch","website_url":"http://www.lynehamhs.act.edu.au/","lat":-35.252379,"lon":149.130653},{"sector":"government","school_name":"Lyneham Primary School","suburb":"Lyneham","postcode":"2602","phone":"","public_email":"info@lynehamps.act.edu.au","contact_form_url":"http://www.lynehamps.act.edu.au/sitesearch","website_url":"http://www.lynehamps.act.edu.au/","lat":-35.25148,"lon":149.124974},{"sector":"government","school_name":"Majura Primary School","suburb":"Watson","postcode":"2602","phone":"","public_email":"admin@majuraps.act.edu.au","contact_form_url":"http://www.majuraps.act.edu.au/sitesearch","website_url":"http://www.majuraps.act.edu.au/","lat":-35.238509,"lon":149.15501},{"sector":"government","school_name":"Mawson Primary School","suburb":"Mawson","postcode":"2607","phone":"","public_email":"info_mawsonps@ed.act.edu.au","contact_form_url":"http://www.mawsonps.act.edu.au/sitesearch","website_url":"http://www.mawsonps.act.edu.au/","lat":-35.358505,"lon":149.097655},{"sector":"government","school_name":"Melrose High School","suburb":"Pearce","postcode":"2607","phone":"","public_email":"frontoffice@melrosehs.act.edu.au","contact_form_url":"http://www.melrosehs.act.edu.au/sitesearch","website_url":"http://www.melrosehs.act.edu.au/","lat":-35.363475,"lon":149.089434},{"sector":"government","school_name":"North Ainslie Primary School","suburb":"Ainslie","postcode":"2602","phone":"","public_email":"admin@nthainslieps.act.edu.au","contact_form_url":"http://www.nthainslieps.act.edu.au/sitesearch","website_url":"http://www.nthainslieps.act.edu.au/","lat":-35.255113,"lon":149.146358},{"sector":"government","school_name":"Red Hill Primary School","suburb":"Red Hill","postcode":"2603","phone":"","public_email":"info@redhillps.act.edu.au","contact_form_url":"http://www.redhillps.act.edu.au/sitesearch","website_url":"http://www.redhillps.act.edu.au/","lat":-35.3397,"lon":149.1329},{"sector":"government","school_name":"Telopea Park School","suburb":"Barton","postcode":"2600","phone":"","public_email":"tps@telopea.act.edu.au","contact_form_url":"http://www.telopea.act.edu.au/sitesearch","website_url":"http://www.telopea.act.edu.au/","lat":-35.3138,"lon":149.1344},{"sector":"government","school_name":"Torrens Primary School","suburb":"Torrens","postcode":"2607","phone":"","public_email":"admin@torrensps.act.edu.au","contact_form_url":"http://www.torrensps.act.edu.au/sitesearch","website_url":"http://www.torrensps.act.edu.au/","lat":-35.37,"lon":149.0909},{"sector":"government","school_name":"Turner School","suburb":"Turner","postcode":"2612","phone":"","public_email":"tnrp@turners.act.edu.au","contact_form_url":"http://www.turners.act.edu.au/sitesearch","website_url":"http://www.turners.act.edu.au/","lat":-35.265,"lon":149.1261},{"sector":"government","school_name":"Yarralumla Primary School","suburb":"Yarralumla","postcode":"2600","phone":"","public_email":"info@yarralumlaps.act.edu.au","contact_form_url":"http://www.yarralumlaps.act.edu.au/sitesearch","website_url":"http://www.yarralumlaps.act.edu.au/","lat":-35.3069,"lon":149.1032},{"sector":"government","school_name":"Black Mountain School","suburb":"O'Connor","postcode":"2602","phone":"","public_email":"blackmtnschool@ed.act.edu.au","contact_form_url":"http://www.bms.act.edu.au/sitesearch","website_url":"http://www.bms.act.edu.au/","lat":-35.265224,"lon":149.112366},{"sector":"government","school_name":"Malkara School","suburb":"Garran","postcode":"2605","phone":"","public_email":"malkara@ed.act.edu.au","contact_form_url":"http://www.malkara.act.edu.au/sitesearch","website_url":"http://www.malkara.act.edu.au/","lat":-35.337447,"lon":149.09402},{"sector":"government","school_name":"The Woden School","suburb":"Deakin","postcode":"2600","phone":"","public_email":"tws@thewodens.act.edu.au","contact_form_url":"http://www.thewodens.act.edu.au/sitesearch","website_url":"http://www.thewodens.act.edu.au/","lat":-35.3266,"lon":149.0924},{"sector":"government","school_name":"Arawang Primary School","suburb":"Waramanga","postcode":"2611","phone":"","public_email":"arawangps.info@ed.act.edu.au","contact_form_url":"http://www.arawangps.act.edu.au/sitesearch","website_url":"http://www.arawangps.act.edu.au/","lat":-35.355017,"lon":149.059719},{"sector":"government","school_name":"Bonython Primary School","suburb":"Bonython","postcode":"2905","phone":"","public_email":"bonythonps@ed.act.edu.au","contact_form_url":"http://www.bonythonps.act.edu.au/sitesearch","website_url":"http://www.bonythonps.act.edu.au/","lat":-35.431846,"lon":149.082604},{"sector":"government","school_name":"Calwell High School","suburb":"Calwell","postcode":"2905","phone":"","public_email":"info@calwellhs.act.edu.au","contact_form_url":"http://www.calwellhs.act.edu.au/sitesearch","website_url":"http://www.calwellhs.act.edu.au/","lat":-35.4411,"lon":149.1176},{"sector":"government","school_name":"Calwell Primary School","suburb":"Calwell","postcode":"2905","phone":"","public_email":"info@calwellps.act.edu.au","contact_form_url":"http://www.calwellps.act.edu.au/sitesearch","website_url":"http://www.calwellps.act.edu.au/","lat":-35.438412,"lon":149.109254},{"sector":"government","school_name":"Chapman Primary School","suburb":"Chapman","postcode":"2611","phone":"","public_email":"chapmanps.info@ed.act.edu.au","contact_form_url":"","website_url":"http://www.chapmanps.act.edu.au/","lat":-35.3569,"lon":149.0431},{"sector":"government","school_name":"Charles Conder Primary School","suburb":"Conder","postcode":"2906","phone":"","public_email":"info@conderps.act.edu.au","contact_form_url":"http://www.conderps.act.edu.au/sitesearch","website_url":"http://www.conderps.act.edu.au/","lat":-35.4649,"lon":149.0984},{"sector":"government","school_name":"Duffy Primary School","suburb":"Duffy","postcode":"2611","phone":"","public_email":"duffyps@ed.act.edu.au","contact_form_url":"http://www.duffyps.act.edu.au/sitesearch","website_url":"http://www.duffyps.act.edu.au/","lat":-35.3342,"lon":149.0337},{"sector":"government","school_name":"Fadden Primary School","suburb":"Fadden","postcode":"2904","phone":"","public_email":"info@faddenps.act.edu.au","contact_form_url":"http://www.faddenps.act.edu.au/sitesearch","website_url":"http://www.faddenps.act.edu.au/","lat":-35.4043,"lon":149.1182},{"sector":"government","school_name":"Gilmore Primary School","suburb":"Gilmore","postcode":"2905","phone":"","public_email":"info@gilmoreps.act.edu.au","contact_form_url":"http://www.gilmoreps.act.edu.au/sitesearch","website_url":"http://www.gilmoreps.act.edu.au/","lat":-35.4195,"lon":149.1356},{"sector":"government","school_name":"Gordon Primary School","suburb":"Gordon","postcode":"2906","phone":"","public_email":"info@gordonps.act.edu.au","contact_form_url":"http://www.gordonps.act.edu.au/sitesearch","website_url":"http://www.gordonps.act.edu.au/","lat":-35.455517,"lon":149.086978},{"sector":"government","school_name":"Gowrie Primary School","suburb":"Gowrie","postcode":"2904","phone":"","public_email":"gowp@gowrieps.act.edu.au","contact_form_url":"http://www.gowrieps.act.edu.au/sitesearch","website_url":"http://www.gowrieps.act.edu.au/","lat":-35.413608,"lon":149.110565},{"sector":"government","school_name":"Lake Tuggeranong College","suburb":"Greenway","postcode":"2900","phone":"","public_email":"info@ltc.act.edu.au","contact_form_url":"http://www.ltc.act.edu.au/sitesearch","website_url":"http://www.ltc.act.edu.au/","lat":-35.413803,"lon":149.068195},{"sector":"government","school_name":"Lanyon High School","suburb":"Conder","postcode":"2906","phone":"","public_email":"lanyonhsinfo@ed.act.edu.au","contact_form_url":"http://www.lanyonhs.act.edu.au/sitesearch","website_url":"http://www.lanyonhs.act.edu.au/","lat":-35.460389,"lon":149.09507},{"sector":"government","school_name":"Monash Primary School","suburb":"Monash","postcode":"2904","phone":"","public_email":"info@monashps.act.edu.au","contact_form_url":"http://www.monashps.act.edu.au/sitesearch","website_url":"http://www.monashps.act.edu.au/","lat":-35.414879,"lon":149.089411},{"sector":"government","school_name":"Richardson Primary School","suburb":"Richardson","postcode":"2905","phone":"","public_email":"info@richardsonps.act.edu.au","contact_form_url":"http://www.richardsonps.act.edu.au/sitesearch","website_url":"http://www.richardsonps.act.edu.au/","lat":-35.4289,"lon":149.1139},{"sector":"government","school_name":"Mount Stromlo High School","suburb":"Waramanga","postcode":"2611","phone":"","public_email":"stromlo.enquiries@ed.act.edu.au","contact_form_url":"http://www.mountstromlohs.act.edu.au/sitesearch","website_url":"http://www.mountstromlohs.act.edu.au","lat":-35.35492667487493,"lon":149.054492185542},{"sector":"government","school_name":"Taylor Primary School","suburb":"Kambah","postcode":"2902","phone":"","public_email":"admin@taylorps.act.edu.au","contact_form_url":"http://www.taylorps.act.edu.au/sitesearch","website_url":"http://www.taylorps.act.edu.au/","lat":-35.3783,"lon":149.0643},{"sector":"government","school_name":"Theodore Primary School","suburb":"Theodore","postcode":"2905","phone":"","public_email":"info@theops.act.edu.au","contact_form_url":"http://www.theops.act.edu.au/sitesearch","website_url":"http://www.theops.act.edu.au/","lat":-35.4477,"lon":149.124},{"sector":"government","school_name":"Wanniassa Hills Primary School","suburb":"Wanniassa","postcode":"2903","phone":"","public_email":"info@whps.act.edu.au","contact_form_url":"http://www.whps.act.edu.au/sitesearch","website_url":"http://www.whps.act.edu.au/","lat":-35.3931,"lon":149.0959},{"sector":"government","school_name":"Wanniassa School","suburb":"Wanniassa","postcode":"2903","phone":"","public_email":"info@wans.act.edu.au","contact_form_url":"http://www.wans.act.edu.au/sitesearch","website_url":"http://www.wans.act.edu.au/","lat":-35.396874,"lon":149.085615},{"sector":"catholic","school_name":"Good Shepherd Primary School","suburb":"Amaroo","postcode":"2914","phone":"","public_email":"office.goodshepherd@cg.catholic.edu.au","contact_form_url":"http://www.goodshepherd.act.edu.au/site-search","website_url":"http://www.goodshepherd.act.edu.au","lat":-35.16517,"lon":149.124995},{"sector":"catholic","school_name":"Holy Family Primary School","suburb":"Gowrie","postcode":"2904","phone":"","public_email":"admin@kidsbizoshc.com.au","contact_form_url":"http://www.holyfamily.act.edu.au/site-search","website_url":"http://www.holyfamily.act.edu.au","lat":-35.410301,"lon":149.116552},{"sector":"catholic","school_name":"Holy Spirit Primary School","suburb":"Nicholls","postcode":"2913","phone":"","public_email":"","contact_form_url":"http://www.holyspirit.act.edu.au/site-search","website_url":"http://www.holyspirit.act.edu.au","lat":-35.180246,"lon":149.101809},{"sector":"catholic","school_name":"Holy Trinity Primary School","suburb":"Curtin","postcode":"2605","phone":"","public_email":"","contact_form_url":"http://www.holytrinity.act.edu.au/site-search","website_url":"http://www.holytrinity.act.edu.au","lat":-35.327679,"lon":149.081951},{"sector":"catholic","school_name":"St Mary MacKillop College","suburb":"Isabella Plains","postcode":"2905","phone":"","public_email":"","contact_form_url":"http://www.mackillop.act.edu.au/index.php/search-results","website_url":"http://www.mackillop.act.edu.au","lat":-35.4249,"lon":149.093},{"sector":"catholic","school_name":"Merici College","suburb":"Braddon","postcode":"2612","phone":"","public_email":"principal.merici@merici.act.edu.au","contact_form_url":"","website_url":"http://www.merici.act.edu.au","lat":-35.26684099,"lon":149.13679296},{"sector":"catholic","school_name":"Rosary Primary School","suburb":"Watson","postcode":"2602","phone":"","public_email":"rosarycouncil@gmail.com","contact_form_url":"http://www.rosary.act.edu.au/site-search","website_url":"http://www.rosary.act.edu.au","lat":-35.245015,"lon":149.155616},{"sector":"catholic","school_name":"Sacred Heart Primary School","suburb":"Pearce","postcode":"2607","phone":"","public_email":"office.shps@cg.catholic.edu.au","contact_form_url":"http://www.sacredhps.act.edu.au/site-search","website_url":"http://www.sacredhps.act.edu.au","lat":-35.3669,"lon":149.0844},{"sector":"catholic","school_name":"St Anthony's Parish Primary School","suburb":"Wanniassa","postcode":"2903","phone":"","public_email":"office.stanthonyswanniassa@cg.catholic.edu.au","contact_form_url":"http://www.stanthonys.act.edu.au/site-search","website_url":"http://www.stanthonys.act.edu.au","lat":-35.394,"lon":149.0801},{"sector":"catholic","school_name":"St Bede's Primary School","suburb":"Red Hill","postcode":"2603","phone":"","public_email":"office.stbedes@cg.catholic.edu.au","contact_form_url":"https://stbedes.act.edu.au","website_url":"http://www.stbedes.act.edu.au","lat":-35.3388,"lon":149.1288},{"sector":"catholic","school_name":"St Benedict's Primary School","suburb":"Narrabundah","postcode":"2604","phone":"","public_email":"office.stbenedicts@cg.catholic.edu.au","contact_form_url":"http://www.stbenedicts.act.edu.au/site-search","website_url":"http://www.stbenedicts.act.edu.au","lat":-35.3348,"lon":149.148},{"sector":"catholic","school_name":"St Clare of Assisi Primary School","suburb":"Conder","postcode":"2906","phone":"","public_email":"sca@cg.catholic.edu.au","contact_form_url":"http://www.sca.act.edu.au/site-search","website_url":"http://www.sca.act.edu.au","lat":-35.459106,"lon":149.096124},{"sector":"catholic","school_name":"St Clare's College","suburb":"Griffith","postcode":"2603","phone":"","public_email":"ehelpdesk@stcc.act.edu.au","contact_form_url":"https://stcc.act.edu.au","website_url":"https://stcc.act.edu.au/","lat":-35.3239,"lon":149.1477},{"sector":"catholic","school_name":"St Francis of Assisi Primary School","suburb":"Calwell","postcode":"2905","phone":"","public_email":"tuggeranongsouth@cg.org.au","contact_form_url":"http://www.stfa.act.edu.au/site-search","website_url":"http://www.stfa.act.edu.au","lat":-35.4408,"lon":149.1196},{"sector":"catholic","school_name":"St Francis Xavier College","suburb":"Florey","postcode":"2615","phone":"","public_email":"studentoffice@sfx.act.edu.au","contact_form_url":"http://www.sfx.act.edu.au/enrol-sfx/contact-us","website_url":"http://www.sfx.act.edu.au","lat":-35.224,"lon":149.0406},{"sector":"catholic","school_name":"St John the Apostle Primary School","suburb":"Florey","postcode":"2615","phone":"","public_email":"","contact_form_url":"http://www.sjaps.act.edu.au/site-search","website_url":"http://www.sjaps.act.edu.au","lat":-35.226387,"lon":149.041793},{"sector":"catholic","school_name":"St John Vianney's Primary School","suburb":"Waramanga","postcode":"2611","phone":"","public_email":"office.sjv@cg.catholic.edu.au","contact_form_url":"http://www.sjv.act.edu.au/site-search","website_url":"http://www.sjv.act.edu.au","lat":-35.35183556,"lon":149.05501951},{"sector":"catholic","school_name":"St Joseph's Primary School","suburb":"O'Connor","postcode":"2602","phone":"","public_email":"amy.doszpot@cg.catholic.edu.au","contact_form_url":"http://www.sjo.act.edu.au/site-search","website_url":"http://www.sjo.act.edu.au","lat":-35.2596,"lon":149.1264},{"sector":"catholic","school_name":"St Jude's Primary School","suburb":"Holder","postcode":"2611","phone":"","public_email":"elc.stjudes@cg.catholic.edu.au","contact_form_url":"http://www.stjudesps.act.edu.au/site-search","website_url":"http://www.stjudesps.act.edu.au","lat":-35.3339331,"lon":149.05045994},{"sector":"catholic","school_name":"St Matthew's Primary School","suburb":"Page","postcode":"2614","phone":"","public_email":"office.stmatts@cg.catholic.edu.au","contact_form_url":"http://www.stmattsps.act.edu.au/site-search","website_url":"http://www.stmattsps.act.edu.au/","lat":-35.2408,"lon":149.0416},{"sector":"catholic","school_name":"St Michael's Primary School","suburb":"Kaleen","postcode":"2617","phone":"","public_email":"office.stmichaelsps@cg.catholic.edu.au","contact_form_url":"http://www.stmichaelsps.act.edu.au/site-search","website_url":"http://www.stmichaelsps.act.edu.au","lat":-35.2235,"lon":149.1097},{"sector":"catholic","school_name":"St Monica's Primary School","suburb":"Evatt","postcode":"2617","phone":"","public_email":"","contact_form_url":"http://www.stmonicas.act.edu.au/site-search","website_url":"http://www.stmonicas.act.edu.au","lat":-35.21349493,"lon":149.06138563},{"sector":"catholic","school_name":"St Thomas Aquinas Primary School","suburb":"Charnwood","postcode":"2615","phone":"","public_email":"elc.staquinas@cg.catholic.edu.au","contact_form_url":"http://www.staquinas.act.edu.au/site-search","website_url":"http://www.staquinas.act.edu.au","lat":-35.2051,"lon":149.0296},{"sector":"catholic","school_name":"St Thomas More's Primary School","suburb":"Campbell","postcode":"2612","phone":"","public_email":"office.stmore@cg.catholic.edu.au","contact_form_url":"http://www.stmore.act.edu.au/site-search","website_url":"http://www.stmore.act.edu.au","lat":-35.28712,"lon":149.155404},{"sector":"catholic","school_name":"St Thomas the Apostle Primary School","suburb":"Kambah","postcode":"2902","phone":"","public_email":"office.sttapkambah@cg.catholic.edu.au","contact_form_url":"http://www.sttap.act.edu.au/site-search","website_url":"http://www.sttap.act.edu.au","lat":-35.38060036,"lon":149.05297105},{"sector":"catholic","school_name":"St Vincent's Primary School","suburb":"Aranda","postcode":"2614","phone":"","public_email":"","contact_form_url":"http://www.svdp.act.edu.au/site-search","website_url":"http://www.svdp.act.edu.au","lat":-35.255025,"lon":149.076332},{"sector":"catholic","school_name":"Sts Peter and Paul Primary School","suburb":"Garran","postcode":"2605","phone":"","public_email":"office.stpandp@cg.catholic.edu.au","contact_form_url":"https://stpandp.act.edu.au/contact-us","website_url":"http://www.stpandp.act.edu.au","lat":-35.339253,"lon":149.093335},{"sector":"independent","school_name":"Blue Gum Community School","suburb":"Hackett","postcode":"2602","phone":"","public_email":"school@bluegum.act.edu.au","contact_form_url":"https://bluegum.act.edu.au/contact-us/","website_url":"http://www.bluegum.act.edu.au","lat":-35.250368,"lon":149.1629},{"sector":"independent","school_name":"Brindabella Christian College","suburb":"Lyneham","postcode":"2602","phone":"","public_email":"bcc@bcc.act.edu.au","contact_form_url":"http://www.bcc.act.edu.au/search","website_url":"http://www.bcc.act.edu.au","lat":-35.249,"lon":149.128},{"sector":"independent","school_name":"Burgmann Anglican School","suburb":"Gungahlin","postcode":"2912","phone":"","public_email":"communityquestions@burgmann.act.edu.au","contact_form_url":"https://www.burgmann.act.edu.au/search","website_url":"http://www.burgmann.act.edu.au","lat":-35.188529,"lon":149.123672},{"sector":"independent","school_name":"Canberra Christian School","suburb":"Mawson","postcode":"2607","phone":"","public_email":"admin@ccs.act.edu.au","contact_form_url":"http://ccs.act.edu.au","website_url":"http://ccs.act.edu.au","lat":-35.356475,"lon":149.097963},{"sector":"independent","school_name":"Canberra Girls Grammar School","suburb":"Deakin","postcode":"2600","phone":"","public_email":"earlylearningcentre@cggs.act.edu.au","contact_form_url":"http://www.cggs.act.edu.au/search","website_url":"http://www.cggs.act.edu.au","lat":-35.317,"lon":149.1151},{"sector":"independent","school_name":"Canberra Grammar School","suburb":"Red Hill","postcode":"2603","phone":"","public_email":"info@cgs.act.edu.au","contact_form_url":"http://www.cgs.act.edu.au/","website_url":"http://www.cgs.act.edu.au/","lat":-35.32981254,"lon":149.12824683},{"sector":"independent","school_name":"Canberra Montessori School","suburb":"Holder","postcode":"2611","phone":"","public_email":"admin@cms.act.edu.au","contact_form_url":"https://cms.act.edu.au","website_url":"https://cms.act.edu.au/","lat":-35.3322,"lon":149.0511},{"sector":"independent","school_name":"Covenant Christian School","suburb":"Gordon","postcode":"2906","phone":"","public_email":"","contact_form_url":"https://www.covenant.act.edu.au/","website_url":"http://www.covenant.act.edu.au","lat":-35.4402268015199,"lon":149.089922317505},{"sector":"independent","school_name":"Emmaus Christian School","suburb":"Dickson","postcode":"2602","phone":"","public_email":"emmaus@emmaus.act.edu.au","contact_form_url":"http://www.emmaus.act.edu.au/contact","website_url":"http://www.emmaus.act.edu.au","lat":-35.2534,"lon":149.1428},{"sector":"independent","school_name":"Islamic School of Canberra","suburb":"Weston","postcode":"2611","phone":"","public_email":"reception@isc.act.edu.au","contact_form_url":"https://www.islamicschoolofcanberra.act.edu.au/search","website_url":"http://www.islamicschoolofcanberra.act.edu.au/","lat":-35.329825,"lon":149.059467},{"sector":"independent","school_name":"Orana Steiner School","suburb":"Weston","postcode":"2611","phone":"","public_email":"info@oranaschool.com","contact_form_url":"https://oranaschool.com","website_url":"http://www.oranaschool.com","lat":-35.327048,"lon":149.060215},{"sector":"independent","school_name":"Radford College","suburb":"Bruce","postcode":"2617","phone":"","public_email":"reception@radford.act.edu.au","contact_form_url":"https://www.radford.act.edu.au/search","website_url":"http://www.radford.act.edu.au","lat":-35.24489829,"lon":149.08718484},{"sector":"independent","school_name":"Communities@Work Galilee School","suburb":"Kambah","postcode":"2902","phone":"","public_email":"","contact_form_url":"","website_url":"https://commsatwork.org/services/community/galilee-school/","lat":-35.38649263,"lon":149.03083919},{"sector":"independent","school_name":"Trinity Christian School","suburb":"Wanniassa","postcode":"2903","phone":"","public_email":"enquiries@tcs.act.edu.au","contact_form_url":"http://www.trinitycs.act.edu.au","website_url":"http://www.trinitycs.act.edu.au","lat":-35.4083,"lon":149.0861},{"sector":"government","school_name":"Namadgi School","suburb":"Kambah","postcode":"2902","phone":"","public_email":"info@namadgi.act.edu.au","contact_form_url":"http://www.namadgi.act.edu.au/sitesearch","website_url":"http://www.namadgi.act.edu.au/","lat":-35.39262555,"lon":149.06839016},{"sector":"government","school_name":"Gungahlin College","suburb":"Gungahlin","postcode":"2912","phone":"","public_email":"gungahlincollege@ed.act.edu.au","contact_form_url":"http://www.gungahlincollege.act.edu.au/sitesearch","website_url":"http://www.gungahlincollege.act.edu.au","lat":-35.18567606,"lon":149.13109859},{"sector":"government","school_name":"Neville Bonner Primary School","suburb":"Bonner","postcode":"2914","phone":"","public_email":"nevillebonnerps@ed.act.edu.au","contact_form_url":"http://www.nevillebonnerps.act.edu.au/sitesearch","website_url":"http://www.nevillebonnerps.act.edu.au/","lat":-35.162012,"lon":149.1404343},{"sector":"government","school_name":"Franklin School","suburb":"Franklin","postcode":"2913","phone":"","public_email":"info.franklinecs@ed.act.edu.au","contact_form_url":"http://franklinschool.act.edu.au/sitesearch","website_url":"http://www.fecs.act.edu.au/","lat":-35.1965004,"lon":149.1447223},{"sector":"catholic","school_name":"St John Paul II College","suburb":"Nicholls","postcode":"2913","phone":"","public_email":"jie.li@cg.catholic.edu.au","contact_form_url":"http://www.jpc.act.edu.au/site-search","website_url":"http://www.jpc.act.edu.au","lat":-35.1775579,"lon":149.10102177},{"sector":"independent","school_name":"Taqwa School","suburb":"Moncrieff","postcode":"2914","phone":"","public_email":"info@taqwaschool.act.edu.au","contact_form_url":"http://taqwaschool.act.edu.au/search/results","website_url":"http://taqwaschool.act.edu.au/","lat":-35.1556696636672,"lon":149.1190517},{"sector":"government","school_name":"Charles Weston School","suburb":"Coombs","postcode":"2611","phone":"","public_email":"","contact_form_url":"","website_url":"http://www.charlesweston.act.edu.au/","lat":-35.320568,"lon":149.040625},{"sector":"government","school_name":"Margaret Hendry School","suburb":"Taylor","postcode":"2913","phone":"","public_email":"margarethendry@ed.act.edu.au","contact_form_url":"","website_url":"https://www.margarethendryschool.act.edu.au","lat":-35.1518563839374,"lon":149.113569197097},{"sector":"government","school_name":"Evelyn Scott School","suburb":"Denman Prospect","postcode":"2611","phone":"","public_email":"evelynscottschool.information@ed.act.edu.au","contact_form_url":"","website_url":"https://www.evelynscottschool.act.edu.au","lat":-35.3064,"lon":149.026739},{"sector":"government","school_name":"Throsby School","suburb":"Throsby","postcode":"2914","phone":"","public_email":"throsbyschoolinfo@ed.act.edu.au","contact_form_url":"","website_url":"https://www.throsbyschool.act.edu.au","lat":-35.1935087,"lon":149.1653391},{"sector":"government","school_name":"Shirley Smith High School","suburb":"Kenny","postcode":"2911","phone":"","public_email":"info.shirleysmith@ed.act.edu.au","contact_form_url":"","website_url":"https://www.shirleysmithhs.act.edu.au/","lat":-35.2101579,"lon":149.1539733},{"sector":"government","school_name":"Aunty Agnes Shea High School","suburb":"Taylor","postcode":"2913","phone":"","public_email":"agsh.information@ed.act.edu.au","contact_form_url":"","website_url":"https://www.agnessheahs.act.edu.au/","lat":-35.14852,"lon":149.11039}]